[{"OBJECT_NAME":"OBJECT B","OBJECT_ID":"2024-153B","EPOCH":"2026-03-09T23:15:18.632160","MEAN_MOTION":15.30512917,"ECCENTRICITY":0.00113423,"INCLINATION":97.6622,"RA_OF_ASC_NODE":204.9195,"ARG_OF_PERICENTER":149.8438,"MEAN_ANOMALY":210.3457,"EPHEMERIS_TYPE":0,"CLASSIFICATION_TYPE":"U","NORAD_CAT_ID":60746,"ELEMENT_SET_NO":999,"REV_AT_EPOCH":8476,"BSTAR":0.00066193599,"MEAN_MOTION_DOT":0.00019515,"MEAN_MOTION_DDOT":0},{"OBJECT_NAME":"STARLINK-33553","OBJECT_ID":"2024-220W","EPOCH":"2026-03-09T10:37:57.254592","MEAN_MOTION":15.27581447,"ECCENTRICITY":0.00014121,"INCLINATION":43.0012,"RA_OF_ASC_NODE":206.9212,"ARG_OF_PERICENTER":248.9109,"MEAN_ANOMALY":111.1592,"EPHEMERIS_TYPE":0,"CLASSIFICATION_TYPE":"U","NORAD_CAT_ID":62108,"ELEMENT_SET_NO":999,"REV_AT_EPOCH":7315,"BSTAR":0.0013004672,"MEAN_MOTION_DOT":0.00035699,"MEAN_MOTION_DDOT":0}]
